    PK11N010  2027 12 30.8879  2.833591  0.545486  330.4884   77.6291   35.7866  20250411  11.5  4.0  P/2011 N1 (ASH)                                          MPC 87913
    PK11P010  2030 12 21.5289  5.025371  0.326452  349.1832    4.2621    5.6523  20250411   9.0  4.0  P/2011 P1 (McNaught)                                     MPEC 2022-ED3
    PK11S010  2014 08 24.4802  6.866667  0.201107  192.9256  218.8970    2.6886  20250411   8.0  4.0  P/2011 S1 (Gibbs)                                        MPEC 2022-HC2
    PK11V010  2026 04 23.5529  1.742051  0.548369  269.6149   46.4908    7.3831  20250411  15.5  4.0  P/2011 V1 (Boattini)                                     MPEC 2023-UR6
    PK11W010  2022 02  9.3933  3.325522  0.288508  283.0156  161.8100    3.7161  20250411  11.5  4.0  P/2011 W1 (PANSTARRS)                                    MPC 82718
    PK11Y020  2027 10  2.1774  1.798944  0.711205  132.0660  309.3205    6.3916  20250411  15.0  4.0  P/2011 Y2 (Boattini)                                     MPC 79342
    PK12B010  2030 03  8.9922  3.858953  0.410058  161.9386   36.2106    7.6058  20250411   9.0  4.0  P/2012 B1 (PANSTARRS)                                    MPEC 2022-K19
    PK12C030  2011 10  6.7469  3.605925  0.630111  344.9542  135.3677    9.0920            13.0  4.0  P/2012 C3 (PANSTARRS)                                    MPC 78590
    PK12F020  2029 03 19.5469  2.916980  0.540421   33.1616  226.9576   14.6985  20250411  12.0  4.0  P/2012 F2 (PANSTARRS)                                    MPC 84931
    PK12G010  2029 03 28.1675  2.791189  0.329473  266.0194  283.2398   12.1680  20250411  15.0  4.0  P/2012 G1 (PANSTARRS)                                    MPEC 2022-ED3
    PK12K030  2026 07 15.9326  2.100704  0.421675  172.1457  125.8064   13.1816  20250411  15.0  4.0  P/2012 K3 (Gibbs)                                        MPC 80898
    PK12N00J  2037 02  1.8725  1.299975  0.846476  338.3896  315.6904   84.3331  20250411  14.5  4.0  P/2012 NJ (La Sagra)                                     MPC 88326
    PK12O010  2025 11  1.1161  1.440068  0.593567  238.2816   91.9402    7.4280  20250411  17.5  4.0  P/2012 O1 (McNaught)                                     MPC 81470
    PK12O020  2026 04  1.5289  1.701584  0.531221  183.4152  120.6622   24.4556  20250411  17.0  4.0  P/2012 O2 (McNaught)                                     MPC 80899
    PK12T020  2027 01 20.9449  4.790684  0.162142  311.1691   73.8778   12.5701  20250411  10.0  4.0  P/2012 T2 (PANSTARRS)                                    MPC 82320
    PK12T030  2027 08  9.9551  2.367120  0.615600  195.4731  114.3265    9.5538  20250411  15.0  4.0  P/2012 T3 (PANSTARRS)                                    MPC 80900
    PK12U020  2031 12  5.5637  3.559212  0.500523  228.4343  185.2788   10.7586  20250411  12.5  4.0  P/2012 U2 (PANSTARRS)                                    MPC 82720
    PK13A76L  2029 06 28.0110  2.044195  0.685540   27.1093  146.0874  144.9115  20250411  16.0  4.0  P/2013 AL76 (Catalina)                                   MPC 82721
    PK13G010  2032 01 19.5405  3.384827  0.509917   51.3807  221.3165    5.4571  20250411  11.0  4.0  P/2013 G1 (Kowalski)                                     MPC 91612
    PK13G040  2022 06 19.0812  2.618283  0.409344  214.5220  339.5876    5.9200  20250411  15.0  4.0  P/2013 G4 (PANSTARRS)                                    MPC 84025
    PK13J020  2029 03 13.7246  2.143338  0.655905   37.8639  289.2923   15.5004  20250411  13.0  4.0  P/2013 J2 (McNaught)                                     MPC 91613
    PK13N030  2034 04  9.5878  3.028606  0.591015  323.8910   17.5881    2.1675  20250411  13.0  4.0  P/2013 N3 (PANSTARRS)                                    MPC 86229
    PK13N050  2031 04  2.3173  1.825194  0.731550  176.9608  187.1614   23.4159  20250411  17.0  4.0  P/2013 N5 (PANSTARRS)                                    MPC 85834
    PK13P010  2013 02 16.4350  3.415407  0.602507  138.1396  160.6978   18.6887  20250411  12.0  4.0  P/2013 P1 (PANSTARRS)                                    MPC 85834
    PK13R030  2024 03 20.8621  2.194369  0.276801   11.5014  341.8572    0.8649  20250411  14.0  4.0  P/2013 R3 (Catalina-PANSTARRS)                           MPEC 2022-V95
    PK13R03a  2024 03 20.4867  2.194388  0.276734   11.5796  341.8116    0.8640  20250411   9.0  4.0  P/2013 R3-A (Catalina-PANSTARRS)                         unp
    PK13R03b  2024 03 20.8853  2.194421  0.276778   11.5148  341.8680    0.8653  20250411   9.0  4.0  P/2013 R3-B (Catalina-PANSTARRS)                         MPEC 2015-M77
    PK13T010  2027 10 12.9438  2.203771  0.623612  346.1754   10.0877   24.2710  20250411  16.5  4.0  P/2013 T1 (PANSTARRS)                                    MPC 85835
    PK13T020  2026 06 11.3880  1.746028  0.500215  345.5675    0.8081    9.4471  20250411  16.0  4.0  P/2013 T2 (Schwartz)                                     MPC 86643
    PK13W010  2027 03 15.9311  1.415575  0.593809    1.2418  117.8350    4.6999  20250411  17.5  4.0  P/2013 W1 (PANSTARRS)                                    MPC 91613
    PK13Y46G  2023 01 15.7941  1.743446  0.466702  243.6411   47.7147    7.6397  20250411  10.0  4.0  P/2013 YG46 (Spacewatch)                                 MPC101095
    PK14A020  2028 03 14.1593  2.092312  0.646671  356.1949  106.6566   24.5637  20250411  15.0  4.0  P/2014 A2 (Hill)                                         MPC 89728
    PK14C010  2028 07  2.5700  2.641400  0.343181  188.3025   39.9010    3.2164  20250411  15.5  4.0  P/2014 C1 (TOTAS)                                        MPEC 2024-F34
    CK14F030  2021 05 27.7643  5.730436  0.601921    5.1336  325.9782    6.5210  20250411   6.0  4.0  C/2014 F3 (Sheppard-Trujillo)                            MPEC 2022-WD2
    PK14L020  2030 05 26.2922  2.232707  0.646262  182.6959  149.3395    5.1910  20250411  12.0  4.0  P/2014 L2 (NEOWISE)                                      MPC 98560
    PK14L030  2014 06 21.8674  1.873304  0.771097  178.6614  115.5301    6.2543  20250411  16.0  4.0  P/2014 L3 (Hill)                                         MPC 90769
    PK14M040  2029 03 18.8636  2.368455  0.596036  148.1239  263.1999    3.3471  20250411  15.0  4.0  P/2014 M4 (PANSTARRS)                                    MPC 91614
    PK14O030  2035 02 26.6227  4.685453  0.382449  204.6781   87.6243    7.7889  20250411  10.5  4.0  P/2014 O3 (PANSTARRS)                                    MPC 98560
    CK14Od2G  2022 01  3.0144  9.982905  0.185529  255.2671  145.8261    9.0324  20250411   6.0  4.0  C/2014 OG392 (PANSTARRS)                                 MPC182878
    PK14U040  2027 09 13.8351  1.883229  0.463785  347.8457   11.9272    6.4227  20250411  18.0  4.0  P/2014 U4 (PANSTARRS)                                    MPC 91616
    CK14UR1N  2031 01 16.4400 10.960177  1.004158  326.0798  189.9554   95.4436  20250411   2.5  3.2  C/2014 UN271 (Bernardinelli-Bernstein)                   MPC182878
    PK14V010  2027 11 27.5531  2.557254  0.533450  177.6526  166.1841   22.5006  20250411  14.0  4.0  P/2014 V1 (PANSTARRS)                                    MPC 95211
    PK14W040  2032 11 23.7707  4.243422  0.355086   67.7303   33.3100   15.2838  20250411  11.0  4.0  P/2014 W4 (PANSTARRS)                                    MPC105542
    PK14X010  2030 06 14.9448  1.792034  0.710888   33.9448   61.5478   26.0499  20250411  15.0  4.0  P/2014 X1 (Elenin)                                       MPC 94281
    PK15A030  2015 02 22.9086  1.166532  0.850766  249.6621  277.4850  172.5513  20250411  20.0  4.0  P/2015 A3 (PANSTARRS)                                    MPC 92275
    PK15B010  2015 09  6.3299  5.998857  0.366839  188.6742  352.8523   18.0863  20250411   8.5  4.0  P/2015 B1 (PANSTARRS)                                    MPC 99270
    PK15B040  2015 02  8.6307  3.720564  0.562535  227.0966  266.1361    1.7676  20250411  11.0  4.0  P/2015 B4 (Lemmon-PANSTARRS)                             MPC109141
    PK15C010  2032 02  4.7334  2.833866  0.567293  178.0199  348.7688   13.9163  20250411  12.5  4.0  P/2015 C1 (TOTAS-Gibbs)                                  MPC101096
    PK15D050  2014 04  9.9623  4.545016  0.491850   39.6194   74.0884   20.5521  20250411   9.0  4.0  P/2015 D5 (Kowalski)                                     MPC109141
    PK15D060  2034 07  2.1713  4.538570  0.362541  125.8743   45.4198   20.2934  20250411  10.5  4.0  P/2015 D6 (Lemmon-PANSTARRS)                             MPEC 2024-R10
    PK15K050  2032 11  3.3127  3.017139  0.551557  106.1080  134.3082   39.9263  20250411  13.5  4.0  P/2015 K5 (PANSTARRS)                                    MPC 95213
    PK15M020  2015 09  1.2311  5.965772  0.177709  225.7772   86.6987    3.9678  20250411   8.5  4.0  P/2015 M2 (PANSTARRS)                                    MPC107684
    PK15P040  2030 12 11.3192  2.509326  0.585114  280.7415  104.6773    8.7221  20250411  14.0  4.0  P/2015 P4 (PANSTARRS)                                    MPC 99819
    PK15PM9D  2015 08 10.2645  4.863164  0.325195  352.6917  342.7482    2.0204  20250411  11.5  2.0  P/2015 PD229 (Cameron-ISON)                              MPEC 2022-K19
    PK15Q020  2015 09 13.1152  1.821255  0.752162  244.6520  228.5343  146.5519  20250411  15.5  4.0  P/2015 Q2 (Pimentel)                                     MPC 96867
    PK15R010  2029 10  7.5551  2.159814  0.632965  300.5190   48.3884   22.6827  20250411  14.0  4.0  P/2015 R1 (PANSTARRS)                                    MPC 98562
    PK15R020  2024 12 15.7158  2.454954  0.452013  149.8742  168.6021   15.4826  20250411  14.5  4.0  P/2015 R2 (PANSTARRS)                                    MPC 95734
    PK15T19O  2025 11 23.5123  2.911445  0.359595   89.3360  321.6618    6.5056  20250411  14.0  4.0  P/2015 TO19 (Lemmon-PANSTARRS)                           MPC102953
